NORAD_CAT_ID,OBJECT_NAME,OBJECT_TYPE,EPOCH,MEAN_MOTION,ECCENTRICITY,INCLINATION,RA_OF_ASC_NODE,ARG_OF_PERICENTER,MEAN_ANOMALY,BSTAR,MEAN_MOTION_DOT,MEAN_MOTION_DDOT,TLE_LINE0,TLE_LINE1,TLE_LINE2,SEMIMAJOR_AXIS,PERIOD,APOGEE,PERIGEE,DECAYED
52835.0,STARLINK-4080,PAYLOAD,2022-09-01 14:00:01,15.08868388,0.0001604,53.2164,43.1876,72.0896,13.6774,-0.0016668,-0.00026738,0.0,0 STARLINK-4080,1 52835U 22062F   22244.58335648 -.00026738  00000-0 -16668-2 0  9998,2 52835  53.2164  43.1876 0001604  72.0896  13.6774 15.08868388  1305,6917.794,95.436,540.768,538.549,0.0
52835.0,STARLINK-4080,PAYLOAD,2022-09-01 22:00:00,15.08840751,0.0001614,53.2163,41.6923,63.5485,33.7723,0.0017494,0.00027664,0.0,0 STARLINK-4080,1 52835U 22062F   22244.91667824  .00027664  00000-0  17494-2 0  9994,2 52835  53.2163  41.6923 0001614  63.5485  33.7723 15.08840751  1301,6917.878000000002,95.438,540.86,538.627,0.0
52835.0,STARLINK-4080,PAYLOAD,2022-09-02 06:00:00,15.0882767,0.0001443,53.2166,40.1941,70.562,38.3783,0.00072726,0.00011301,0.0,0 STARLINK-4080,1 52835U 22062F   22245.25001157  .00011301  00000-0  72726-3 0  9994,2 52835  53.2166  40.1941 0001443  70.5620  38.3783 15.08827670 11872,6917.918000000002,95.438,540.781,538.785,0.0
52835.0,STARLINK-4080,PAYLOAD,2022-09-02 14:00:01,15.08851252,0.0001536,53.2167,38.6985,69.3821,51.1377,-0.0018210999999999,-0.00029163,0.0,0 STARLINK-4080,1 52835U 22062F   22245.58334491 -.00029163  00000-0 -18211-2 0  9995,2 52835  53.2167  38.6985 0001536  69.3821  51.1377 15.08851252  1307,6917.846,95.437,540.774,538.648,0.0
52835.0,STARLINK-4080,PAYLOAD,2022-09-02 22:00:01,15.08825614,0.0001578,53.2166,37.2031,61.3377,70.8468,0.0024484,0.00038878,0.0,0 STARLINK-4080,1 52835U 22062F   22245.91668981  .00038878  00000-0  24484-2 0  9996,2 52835  53.2166  37.2031 0001578  61.3377  70.8468 15.08825614  1309,6917.924,95.438,540.881,538.698,0.0
52835.0,STARLINK-4080,PAYLOAD,2022-09-03 14:00:01,15.08880341,0.0001523,53.2172,34.2094,66.8033,88.5159,-0.0042194,-0.0006689,0.0,0 STARLINK-4080,1 52835U 22062F   22246.58334491 -.00066890  00000-0 -42194-2 0  9991,2 52835  53.2172  34.2094 0001523  66.8033  88.5159 15.08880341  1302,6917.757,95.435,540.6759999999998,538.569,0.0
52835.0,STARLINK-4080,PAYLOAD,2022-09-03 22:00:00,15.08826675,0.0001514,53.217,32.7138,58.0061,108.9361,0.0021576,0.00034205,0.0,0 STARLINK-4080,1 52835U 22062F   22246.91667824  .00034205  00000-0  21576-2 0  9991,2 52835  53.2170  32.7138 0001514  58.0061 108.9361 15.08826675  1308,6917.920999999999,95.438,540.8330000000002,538.739,0.0
52835.0,STARLINK-4080,PAYLOAD,2022-09-04 06:00:00,15.08828983,0.0001388,53.2173,31.2157,66.38,112.1676,0.0027754,0.00044146,0.0,0 STARLINK-4080,1 52835U 22062F   22247.25001157  .00044146  00000-0  27754-2 0  9999,2 52835  53.2173  31.2157 0001388  66.3800 112.1676 15.08828983 12175,6917.9140000000025,95.438,540.739,538.819,0.0
52835.0,STARLINK-4080,PAYLOAD,2022-09-04 14:00:01,15.0887669,0.0001534,53.2175,29.7203,64.8837,125.3282,-0.003341,-0.00053121,0.0,0 STARLINK-4080,1 52835U 22062F   22247.58335648 -.00053121  00000-0 -33410-2 0  9991,2 52835  53.2175  29.7203 0001534  64.8837 125.3282 15.08876690  1307,6917.768,95.435,540.694,538.572,0.0
52835.0,STARLINK-4080,PAYLOAD,2022-09-04 20:00:01,15.08830854,0.0001592,53.2174,28.5989,58.9332,49.9364,0.0019095,0.00030225,0.0,0 STARLINK-4080,1 52835U 22062F   22247.83334491  .00030225  00000-0  19095-2 0  9995,2 52835  53.2174  28.5989 0001592  58.9332  49.9364 15.08830854 12263,6917.908,95.438,540.875,538.672,0.0
52835.0,STARLINK-4080,PAYLOAD,2022-09-05 14:00:01,15.08867692,0.0001419999999999,53.2175,25.2313,62.3997,162.5549,-0.0031873,-0.00050695,0.0,0 STARLINK-4080,1 52835U 22062F   22248.58334491 -.00050695  00000-0 -31873-2 0  9991,2 52835  53.2175  25.2313 0001420  62.3997 162.5549 15.08867692 12374,6917.795999999999,95.436,540.643,538.678,0.0
52835.0,STARLINK-4080,PAYLOAD,2022-09-05 22:00:00,15.08838558,0.0001441999999999,53.2171,23.7352,56.7084,179.8502,-0.0032003,-0.00050859,0.0,0 STARLINK-4080,1 52835U 22062F   22248.91667824 -.00050859  00000-0 -32003-2 0  9995,2 52835  53.2171  23.7352 0001442  56.7084 179.8502 15.08838558  1304,6917.885,95.438,540.747,538.752,0.0
52835.0,STARLINK-4080,PAYLOAD,2022-09-06 12:00:00,15.08842556,0.0001304,53.2175,21.1158,61.3771,105.4075,-0.0011034,-0.00017807,0.0,0 STARLINK-4080,1 52835U 22062F   22249.50001157 -.00017807  00000-0 -11034-2 0  9999,2 52835  53.2175  21.1158 0001304  61.3771 105.4075 15.08842556 12514,6917.873000000001,95.437,540.64,538.835,0.0
52835.0,STARLINK-4080,PAYLOAD,2022-09-06 14:00:01,15.08838694,0.0001354,53.2173,20.7422,58.3213,201.363,-0.00071927,-0.00011716,0.0,0 STARLINK-4080,1 52835U 22062F   22249.58334491 -.00011716  00000-0 -71927-3 0  9998,2 52835  53.2173  20.7422 0001354  58.3213 201.3630 15.08838694  1309,6917.884,95.438,540.686,538.813,0.0
52835.0,STARLINK-4080,PAYLOAD,2022-09-06 22:00:00,15.08852395,0.0001411,53.2169,19.246,54.733,216.5357,-0.0027946,-0.00044504,0.0,0 STARLINK-4080,1 52835U 22062F   22249.91667824 -.00044504  00000-0 -27946-2 0  9996,2 52835  53.2169  19.2460 0001411  54.7330 216.5357 15.08852395  1301,6917.843000000003,95.437,540.684,538.731,0.0
52835.0,STARLINK-4080,PAYLOAD,2022-09-07 14:00:01,15.08835017,0.000146,53.2169,16.2532,59.9388,234.4928,-0.00073401,-0.00011949,0.0,0 STARLINK-4080,1 52835U 22062F   22250.58334491 -.00011949  00000-0 -73401-3 0  9997,2 52835  53.2169  16.2532 0001460  59.9388 234.4928 15.08835017 12679,6917.896,95.438,540.771,538.751,0.0
52835.0,STARLINK-4080,PAYLOAD,2022-09-07 22:00:00,15.08844802,0.0001469,53.2166,14.7569,55.8936,250.1166,-0.00041816,-6.938e-05,0.0,0 STARLINK-4080,1 52835U 22062F   22250.91667824 -.00006938  00000-0 -41816-3 0  9990,2 52835  53.2166  14.7569 0001469  55.8936 250.1166 15.08844802  1301,6917.866,95.437,540.747,538.714,0.0
52835.0,STARLINK-4080,PAYLOAD,2022-09-08 06:00:00,15.08837379,0.0001419999999999,53.2167,13.2589,65.2919,252.3269,0.00084755,0.00013226,0.0,0 STARLINK-4080,1 52835U 22062F   22251.25001157  .00013226  00000-0  84755-3 0  9994,2 52835  53.2167  13.2589 0001420  65.2919 252.3269 15.08837379 12773,6917.888000000001,95.438,540.736,538.771,0.0
52835.0,STARLINK-4080,PAYLOAD,2022-09-08 14:00:01,15.08834408,0.0001592,53.2169,11.7641,60.6959,268.5189,-0.00055599,-9.124e-05,0.0,0 STARLINK-4080,1 52835U 22062F   22251.58334491 -.00009124  00000-0 -55599-3 0  9998,2 52835  53.2169  11.7641 0001592  60.6959 268.5189 15.08834408  1307,6917.897,95.438,540.864,538.661,0.0
52835.0,STARLINK-4080,PAYLOAD,2022-09-08 22:00:00,15.08862716,0.000155,53.2167,10.2676,56.0705,284.7267,-0.0023495,-0.00037509,0.0,0 STARLINK-4080,1 52835U 22062F   22251.91667824 -.00037509  00000-0 -23495-2 0  9991,2 52835  53.2167  10.2676 0001550  56.0705 284.7267 15.08862716  1309,6917.811,95.436,540.748,538.604,0.0
52835.0,STARLINK-4080,PAYLOAD,2022-09-09 06:00:00,15.08807338,0.0001431,53.2169,8.7698,63.532,288.8816,0.0030069,0.00047849,0.0,0 STARLINK-4080,1 52835U 22062F   22252.25001157  .00047849  00000-0  30069-2 0  9991,2 52835  53.2169   8.7698 0001431  63.5320 288.8816 15.08807338 12936,6917.98,95.44,540.835,538.855,0.0
52835.0,STARLINK-4080,PAYLOAD,2022-09-09 14:00:01,15.08842551,0.000153,53.217,7.2751,55.9993,307.9864,-0.0011554,-0.0001863,0.0,0 STARLINK-4080,1 52835U 22062F   22252.58334491 -.00018630  00000-0 -11554-2 0  9993,2 52835  53.2170   7.2751 0001530  55.9993 307.9864 15.08842551  1304,6917.873000000001,95.437,540.7959999999998,538.679,0.0
52835.0,STARLINK-4080,PAYLOAD,2022-09-09 20:00:01,15.08836613,0.00015,53.217,6.1532,50.2874,232.3915,-0.00075023,-0.00012207,0.0,0 STARLINK-4080,1 52835U 22062F   22252.83334491 -.00012207  00000-0 -75023-3 0  9997,2 52835  53.2170   6.1532 0001500  50.2874 232.3915 15.08836613 13013,6917.891,95.438,540.793,538.7180000000002,0.0
52835.0,STARLINK-4080,PAYLOAD,2022-09-09 22:00:00,15.08846569,0.0001474,53.217,5.7785,50.7213,324.8521,-0.0025179,-0.00040144,0.0,0 STARLINK-4080,1 52835U 22062F   22252.91667824 -.00040144  00000-0 -25179-2 0  9992,2 52835  53.2170   5.7785 0001474  50.7213 324.8521 15.08846569  1300,6917.86,95.437,540.745,538.706,0.0
52835.0,STARLINK-4080,PAYLOAD,2022-09-10 14:00:01,15.08857166,0.0001576999999999,53.2175,2.7862,51.9556,346.8043,-0.0013837,-0.00022252,0.0,0 STARLINK-4080,1 52835U 22062F   22253.58334491 -.00022252  00000-0 -13837-2 0  9995,2 52835  53.2175   2.7862 0001577  51.9556 346.8043 15.08857166 13137,6917.828,95.436,540.784,538.602,0.0
52835.0,STARLINK-4080,PAYLOAD,2022-09-10 22:00:00,15.08874884,0.0001574,53.2176,1.2895,50.7007,359.6539,-0.0036883,-0.00058566,0.0,0 STARLINK-4080,1 52835U 22062F   22253.91667824 -.00058566  00000-0 -36883-2 0  9994,2 52835  53.2176   1.2895 0001574  50.7007 359.6539 15.08874884  1307,6917.774,95.435,540.7280000000002,538.55,0.0
52835.0,STARLINK-4080,PAYLOAD,2022-09-11 14:00:01,15.0891767,0.0001609,53.2177,358.2943,51.703,21.8556,-0.010994,-0.00171487,0.0,0 STARLINK-4080,1 52835U 22062F   22254.58334491 -.00171487  00000-0 -10994-1 0  9991,2 52835  53.2177 358.2943 0001609  51.7030  21.8556 15.08917670 13281,6917.643,95.433,540.621,538.395,0.0
52835.0,STARLINK-4080,PAYLOAD,2022-09-11 22:00:00,15.08683929,0.0001356,53.2173,356.7947,56.1446,29.0574,0.013131,0.002142,0.0,0 STARLINK-4080,1 52835U 22062F   22254.91667824  .00214200  00000-0  13131-1 0  9992,2 52835  53.2173 356.7947 0001356  56.1446  29.0574 15.08683929  1300,6918.357,95.447,541.161,539.284,0.0
52835.0,STARLINK-4080,PAYLOAD,2022-09-12 06:00:00,15.08816117,0.0001529,53.2175,355.2978,57.8327,38.946,-0.004327,-0.00068453,0.0,0 STARLINK-4080,1 52835U 22062F   22255.25001157 -.00068453  00000-0 -43270-2 0  9998,2 52835  53.2175 355.2978 0001529  57.8327  38.9460 15.08816117 13389,6917.953,95.439,540.876,538.761,0.0
